STARLINK-31623          
1 59272U 24050U   26068.62623957 -.00001356  00000+0 -33687-4 0  9995
2 59272  53.1617 180.9527 0000477  74.7840 285.3213 15.30189981110540
XCUBE-1                 
1 62400U 24247Z   26068.48297321  .00009773  00000+0  36224-3 0  9994
2 62400  44.9938 117.7807 0005235 331.1499  28.9094 15.27910558 67702
